[{"OBJECT_NAME":"CSG-1","OBJECT_ID":"2019-092A","EPOCH":"2026-03-09T22:42:03.650112","MEAN_MOTION":14.82148881,"ECCENTRICITY":0.00014012,"INCLINATION":97.8868,"RA_OF_ASC_NODE":253.98,"ARG_OF_PERICENTER":84.9007,"MEAN_ANOMALY":275.2366,"EPHEMERIS_TYPE":0,"CLASSIFICATION_TYPE":"U","NORAD_CAT_ID":44873,"ELEMENT_SET_NO":999,"REV_AT_EPOCH":33677,"BSTAR":0.00010295004,"MEAN_MOTION_DOT":7.67e-6,"MEAN_MOTION_DDOT":0},{"OBJECT_NAME":"SL-14 R\/B","OBJECT_ID":"1984-105B","EPOCH":"2026-03-09T12:29:04.121376","MEAN_MOTION":14.85838389,"ECCENTRICITY":0.00185681,"INCLINATION":82.5301,"RA_OF_ASC_NODE":85.7447,"ARG_OF_PERICENTER":291.3248,"MEAN_ANOMALY":184.9077,"EPHEMERIS_TYPE":0,"CLASSIFICATION_TYPE":"U","NORAD_CAT_ID":15332,"ELEMENT_SET_NO":999,"REV_AT_EPOCH":21819,"BSTAR":6.6372461e-5,"MEAN_MOTION_DOT":6.03e-6,"MEAN_MOTION_DDOT":0}]
